{
  "type": "FeatureCollection",
  "features": [
    {
      "type": "Feature",
      "properties": {
        "norad_id": 34141,
        "name": "COSMOS 2251 DEB",
        "group": "cosmos-2251-debris",
        "lat": -29.861514641325698,
        "lon": 35.2051885319272,
        "alt_km": 767.411276849587,
        "timestamp": "2025-12-04T07:39:36.525716+00:00",
        "meta_object_name": "COSMOS 2251 DEB",
        "meta_object_id": "1993-036LN",
        "meta_epoch": "2025-12-03T15:49:10.629120",
        "meta_mean_motion": 14.49061898,
        "meta_eccentricity": 0.00483795,
        "meta_inclination": 74.012,
        "meta_ra_of_asc_node": 45.9185,
        "meta_arg_of_pericenter": 135.0139,
        "meta_mean_anomaly": 352.3392,
        "meta_ephemeris_type": 0,
        "meta_classification_type": "U",
        "meta_norad_cat_id": 34141,
        "meta_element_set_no": 999,
        "meta_rev_at_epoch": 87562,
        "meta_bstar": 0.0025470832,
        "meta_mean_motion_dot": 9.803e-05,
        "meta_mean_motion_ddot": 0,
        "tle_line1": "1 34141U 93036LN  25337.65915080  .00009803  00000+0  25471-2 0  9998",
        "tle_line2": "2 34141  74.0120  45.9185 0048379 135.0139 352.3392 14.49061898875629"
      },
      "geometry": {
        "type": "Point",
        "coordinates": [
          35.2051885319272,
          -29.861514641325698
        ]
      }
    },
    {
      "type": "Feature",
      "properties": {
        "norad_id": 34270,
        "name": "COSMOS 2251 DEB",
        "group": "cosmos-2251-debris",
        "lat": 16.384120903338403,
        "lon": 138.01820968544945,
        "alt_km": 652.933518459271,
        "timestamp": "2025-12-04T07:39:36.525725+00:00",
        "meta_object_name": "COSMOS 2251 DEB",
        "meta_object_id": "1993-036LQ",
        "meta_epoch": "2025-12-03T09:37:07.991616",
        "meta_mean_motion": 14.65081948,
        "meta_eccentricity": 0.00478481,
        "meta_inclination": 74.0113,
        "meta_ra_of_asc_node": 324.6227,
        "meta_arg_of_pericenter": 120.2849,
        "meta_mean_anomaly": 240.3067,
        "meta_ephemeris_type": 0,
        "meta_classification_type": "U",
        "meta_norad_cat_id": 34270,
        "meta_element_set_no": 999,
        "meta_rev_at_epoch": 88959,
        "meta_bstar": 0.00070844458,
        "meta_mean_motion_dot": 3.838e-05,
        "meta_mean_motion_ddot": 0,
        "tle_line1": "1 34270U 93036LQ  25337.40078694  .00003838  00000+0  70844-3 0  9992",
        "tle_line2": "2 34270  74.0113 324.6227 0047848 120.2849 240.3067 14.65081948889594"
      },
      "geometry": {
        "type": "Point",
        "coordinates": [
          138.01820968544945,
          16.384120903338403
        ]
      }
    },
    {
      "type": "Feature",
      "properties": {
        "norad_id": 34271,
        "name": "COSMOS 2251 DEB",
        "group": "cosmos-2251-debris",
        "lat": -54.661237526081955,
        "lon": -168.1509598638086,
        "alt_km": 654.4316712554682,
        "timestamp": "2025-12-04T07:39:36.525735+00:00",
        "meta_object_name": "COSMOS 2251 DEB",
        "meta_object_id": "1993-036LR",
        "meta_epoch": "2025-12-03T03:13:29.779680",
        "meta_mean_motion": 14.70407197,
        "meta_eccentricity": 0.0019792,
        "meta_inclination": 74.0207,
        "meta_ra_of_asc_node": 217.985,
        "meta_arg_of_pericenter": 273.2081,
        "meta_mean_anomaly": 239.5046,
        "meta_ephemeris_type": 0,
        "meta_classification_type": "U",
        "meta_norad_cat_id": 34271,
        "meta_element_set_no": 999,
        "meta_rev_at_epoch": 88093,
        "meta_bstar": 0.0025987006,
        "meta_mean_motion_dot": 0.00015783,
        "meta_mean_motion_ddot": 0,
        "tle_line1": "1 34271U 93036LR  25337.13437245  .00015783  00000+0  25987-2 0  9993",
        "tle_line2": "2 34271  74.0207 217.9850 0019792 273.2081 239.5046 14.70407197880939"
      },
      "geometry": {
        "type": "Point",
        "coordinates": [
          -168.1509598638086,
          -54.661237526081955
        ]
      }
    },
    {
      "type": "Feature",
      "properties": {
        "norad_id": 34273,
        "name": "COSMOS 2251 DEB",
        "group": "cosmos-2251-debris",
        "lat": -63.0223461094724,
        "lon": -42.252186900135975,
        "alt_km": 686.8400680443656,
        "timestamp": "2025-12-04T07:39:36.525744+00:00",
        "meta_object_name": "COSMOS 2251 DEB",
        "meta_object_id": "1993-036LT",
        "meta_epoch": "2025-12-03T01:29:53.353248",
        "meta_mean_motion": 14.61061856,
        "meta_eccentricity": 0.00145346,
        "meta_inclination": 74.0346,
        "meta_ra_of_asc_node": 105.9272,
        "meta_arg_of_pericenter": 231.137,
        "meta_mean_anomaly": 249.1249,
        "meta_ephemeris_type": 0,
        "meta_classification_type": "U",
        "meta_norad_cat_id": 34273,
        "meta_element_set_no": 999,
        "meta_rev_at_epoch": 88480,
        "meta_bstar": 0.0015659056,
        "meta_mean_motion_dot": 7.682e-05,
        "meta_mean_motion_ddot": 0,
        "tle_line1": "1 34273U 93036LT  25337.06242307  .00007682  00000+0  15659-2 0  9994",
        "tle_line2": "2 34273  74.0346 105.9272 0014534 231.1370 249.1249 14.61061856884802"
      },
      "geometry": {
        "type": "Point",
        "coordinates": [
          -42.252186900135975,
          -63.0223461094724
        ]
      }
    },
    {
      "type": "Feature",
      "properties": {
        "norad_id": 34274,
        "name": "COSMOS 2251 DEB",
        "group": "cosmos-2251-debris",
        "lat": -40.82797150652114,
        "lon": -80.8607914830754,
        "alt_km": 668.9916748833621,
        "timestamp": "2025-12-04T07:39:36.525753+00:00",
        "meta_object_name": "COSMOS 2251 DEB",
        "meta_object_id": "1993-036LU",
        "meta_epoch": "2025-12-03T07:59:00.236832",
        "meta_mean_motion": 14.64574589,
        "meta_eccentricity": 0.0022598,
        "meta_inclination": 74.0043,
        "meta_ra_of_asc_node": 86.688,
        "meta_arg_of_pericenter": 237.0487,
        "meta_mean_anomaly": 186.4234,
        "meta_ephemeris_type": 0,
        "meta_classification_type": "U",
        "meta_norad_cat_id": 34274,
        "meta_element_set_no": 999,
        "meta_rev_at_epoch": 88538,
        "meta_bstar": 0.0018658,
        "meta_mean_motion_dot": 9.925e-05,
        "meta_mean_motion_ddot": 0,
        "tle_line1": "1 34274U 93036LU  25337.33264163  .00009925  00000+0  18658-2 0  9993",
        "tle_line2": "2 34274  74.0043  86.6880 0022598 237.0487 186.4234 14.64574589885386"
      },
      "geometry": {
        "type": "Point",
        "coordinates": [
          -80.8607914830754,
          -40.82797150652114
        ]
      }
    },
    {
      "type": "Feature",
      "properties": {
        "norad_id": 34276,
        "name": "COSMOS 2251 DEB",
        "group": "cosmos-2251-debris",
        "lat": 27.071288657287074,
        "lon": 109.74889821562145,
        "alt_km": 713.4198353398351,
        "timestamp": "2025-12-04T07:39:36.525762+00:00",
        "meta_object_name": "COSMOS 2251 DEB",
        "meta_object_id": "1993-036LW",
        "meta_epoch": "2025-12-03T12:18:44.712864",
        "meta_mean_motion": 14.57112941,
        "meta_eccentricity": 0.00227996,
        "meta_inclination": 74.0226,
        "meta_ra_of_asc_node": 102.8605,
        "meta_arg_of_pericenter": 250.0797,
        "meta_mean_anomaly": 231.05,
        "meta_ephemeris_type": 0,
        "meta_classification_type": "U",
        "meta_norad_cat_id": 34276,
        "meta_element_set_no": 999,
        "meta_rev_at_epoch": 88458,
        "meta_bstar": 0.0013863393,
        "meta_mean_motion_dot": 6.247e-05,
        "meta_mean_motion_ddot": 0,
        "tle_line1": "1 34276U 93036LW  25337.51301751  .00006247  00000+0  13863-2 0  9997",
        "tle_line2": "2 34276  74.0226 102.8605 0022799 250.0797 231.0500 14.57112941884585"
      },
      "geometry": {
        "type": "Point",
        "coordinates": [
          109.74889821562145,
          27.071288657287074
        ]
      }
    },
    {
      "type": "Feature",
      "properties": {
        "norad_id": 34297,
        "name": "COSMOS 2251 DEB",
        "group": "cosmos-2251-debris",
        "lat": -53.969622817929825,
        "lon": -83.46072209644747,
        "alt_km": 771.6985144010159,
        "timestamp": "2025-12-04T07:39:36.525771+00:00",
        "meta_object_name": "COSMOS 2251 DEB",
        "meta_object_id": "1993-036MT",
        "meta_epoch": "2025-12-03T22:11:54.667392",
        "meta_mean_motion": 14.36616527,
        "meta_eccentricity": 0.00168761,
        "meta_inclination": 74.0482,
        "meta_ra_of_asc_node": 300.4188,
        "meta_arg_of_pericenter": 11.0379,
        "meta_mean_anomaly": 53.8593,
        "meta_ephemeris_type": 0,
        "meta_classification_type": "U",
        "meta_norad_cat_id": 34297,
        "meta_element_set_no": 999,
        "meta_rev_at_epoch": 87938,
        "meta_bstar": 0.00026604757,
        "meta_mean_motion_dot": 7.58e-06,
        "meta_mean_motion_ddot": 0,
        "tle_line1": "1 34297U 93036MT  25337.92493828  .00000758  00000+0  26605-3 0  9992",
        "tle_line2": "2 34297  74.0482 300.4188 0016876  11.0379  53.8593 14.36616527879384"
      },
      "geometry": {
        "type": "Point",
        "coordinates": [
          -83.46072209644747,
          -53.969622817929825
        ]
      }
    }
  ]
}